STARLINK-37302          
1 68669U 26077H   26112.54409477  .00093814  00000+0  62147-3 0  9996
2 68669  97.2840 343.5987 0001439  91.6182 268.5248 15.75244778  1815
